start=new Date('2021-09-16T00:00:00.000Z').valueOf();
sats=[{"OBJECT_NAME":"STARLINK-2227","CLASSIFICATION_TYPE":"U","ECCENTRICITY":"0.00030610","LAUNCH_DATE":"2021-05-15","RA_OF_ASC_NODE":"258.4494","SEMIMAJOR_AXIS":"6817.937","REV_AT_EPOCH":"1933","SITE":"AFETR","CENTER_NAME":"EARTH","TLE_LINE2":"2 48575  53.0574 258.4494 0003061  49.7305  97.7805 15.42138031 19339","OBJECT_ID":"2021-041Y","DECAY_DATE":null,"MEAN_MOTION_DDOT":"0.0000000000000","OBJECT_TYPE":"PAYLOAD","EPOCH":"2021-09-15T22:00:00.999936","TIME_SYSTEM":"UTC","NORAD_CAT_ID":"48575","MEAN_MOTION":"15.42138031","INCLINATION":"53.0574","FILE":"3116443","MEAN_MOTION_DOT":"0.00053165","MEAN_ELEMENT_THEORY":"SGP4","EPHEMERIS_TYPE":"0","PERIAPSIS":"437.715","GP_ID":"184762854","MEAN_ANOMALY":"97.7805","REF_FRAME":"TEME","TLE_LINE1":"1 48575U 21041Y   21258.91667824  .00053165  00000-0  12234-2 0  9992","PERIOD":"93.377","COUNTRY_CODE":"US","ARG_OF_PERICENTER":"49.7305","ELEMENT_SET_NO":"999","BSTAR":"0.00122340000000","RCS_SIZE":"LARGE","APOAPSIS":"441.889"},{"RCS_SIZE":"LARGE","APOAPSIS":"441.468","COUNTRY_CODE":"US","TLE_LINE1":"1 48576U 21041Z   21258.91667824  .00050310  00000-0  11587-2 0  9992","PERIOD":"93.377","ELEMENT_SET_NO":"999","BSTAR":"0.00115870000000","ARG_OF_PERICENTER":"25.9988","MEAN_MOTION_DOT":"0.00050310","MEAN_ELEMENT_THEORY":"SGP4","MEAN_ANOMALY":"125.6915","GP_ID":"184789638","REF_FRAME":"TEME","EPHEMERIS_TYPE":"0","PERIAPSIS":"438.141","EPOCH":"2021-09-15T22:00:00.999936","FILE":"3116597","NORAD_CAT_ID":"48576","TIME_SYSTEM":"UTC","MEAN_MOTION":"15.42137378","INCLINATION":"53.0526","OBJECT_TYPE":"PAYLOAD","MEAN_MOTION_DDOT":"0.0000000000000","DECAY_DATE":null,"OBJECT_ID":"2021-041Z","REV_AT_EPOCH":"365","SEMIMAJOR_AXIS":"6817.939","TLE_LINE2":"2 48576  53.0526 255.4578 0002440  25.9988 125.6915 15.42137378  3654","SITE":"AFETR","CENTER_NAME":"EARTH","CLASSIFICATION_TYPE":"U","OBJECT_NAME":"STARLINK-2228","LAUNCH_DATE":"2021-05-15","RA_OF_ASC_NODE":"255.4578","ECCENTRICITY":"0.00024400"},{"RCS_SIZE":"LARGE","APOAPSIS":"547.380","TLE_LINE1":"1 48577U 21041AA  21258.74456084  .00000968  00000-0  83843-4 0  9998","COUNTRY_CODE":"US","PERIOD":"95.593","BSTAR":"0.00008384300000","ELEMENT_SET_NO":"999","ARG_OF_PERICENTER":"60.0344","MEAN_ELEMENT_THEORY":"SGP4","MEAN_MOTION_DOT":"0.00000968","GP_ID":"184789507","REF_FRAME":"TEME","MEAN_ANOMALY":"300.0666","PERIAPSIS":"547.082","EPHEMERIS_TYPE":"0","EPOCH":"2021-09-15T17:52:10.056576","FILE":"3116597","INCLINATION":"53.0532","NORAD_CAT_ID":"48577","MEAN_MOTION":"15.06394258","TIME_SYSTEM":"UTC","OBJECT_TYPE":"PAYLOAD","MEAN_MOTION_DDOT":"0.0000000000000","OBJECT_ID":"2021-041AA","DECAY_DATE":null,"SEMIMAJOR_AXIS":"6925.366","REV_AT_EPOCH":"1862","TLE_LINE2":"2 48577  53.0532 275.6727 0000215  60.0344 300.0666 15.06394258 18623","CENTER_NAME":"EARTH","SITE":"AFETR","OBJECT_NAME":"STARLINK-2231","CLASSIFICATION_TYPE":"U","LAUNCH_DATE":"2021-05-15","RA_OF_ASC_NODE":"275.6727","ECCENTRICITY":"0.00002150"},{"MEAN_ELEMENT_THEORY":"SGP4","MEAN_MOTION_DOT":"0.00000745","GP_ID":"184760327","REF_FRAME":"TEME","MEAN_ANOMALY":"287.7467","PERIAPSIS":"546.844","EPHEMERIS_TYPE":"0","EPOCH":"2021-09-15T11:02:07.551168","FILE":"3116289","INCLINATION":"53.0535","NORAD_CAT_ID":"48578","TIME_SYSTEM":"UTC","MEAN_MOTION":"15.06386186","RCS_SIZE":"LARGE","APOAPSIS":"547.668","PERIOD":"95.593","TLE_LINE1":"1 48578U 21041AB  21258.45980962  .00000745  00000-0  68930-4 0  9997","COUNTRY_CODE":"US","BSTAR":"0.00006893000000","ELEMENT_SET_NO":"999","ARG_OF_PERICENTER":"72.3587","REV_AT_EPOCH":"1858","SEMIMAJOR_AXIS":"6925.391","TLE_LINE2":"2 48578  53.0535 276.9235 0000595  72.3587 287.7467 15.06386186 18587","CENTER_NAME":"EARTH","SITE":"AFETR","CLASSIFICATION_TYPE":"U","OBJECT_NAME":"STARLINK-2232","RA_OF_ASC_NODE":"276.9235","LAUNCH_DATE":"2021-05-15","ECCENTRICITY":"0.00005950","OBJECT_TYPE":"PAYLOAD","MEAN_MOTION_DDOT":"0.0000000000000","OBJECT_ID":"2021-041AB","DECAY_DATE":null},{"OBJECT_TYPE":"PAYLOAD","MEAN_MOTION_DDOT":"0.0000000000000","DECAY_DATE":null,"OBJECT_ID":"2021-041AC","TLE_LINE2":"2 48579  53.0556 276.8960 0000574  86.7247 273.3808 15.06393980 18584","CENTER_NAME":"EARTH","SITE":"AFETR","SEMIMAJOR_AXIS":"6925.367","REV_AT_EPOCH":"1858","LAUNCH_DATE":"2021-05-15","RA_OF_ASC_NODE":"276.8960","ECCENTRICITY":"0.00005740","CLASSIFICATION_TYPE":"U","OBJECT_NAME":"STARLINK-2233","APOAPSIS":"547.630","RCS_SIZE":"LARGE","BSTAR":"-0.00002872400000","ELEMENT_SET_NO":"999","ARG_OF_PERICENTER":"86.7247","COUNTRY_CODE":"US","TLE_LINE1":"1 48579U 21041AC  21258.46811980 -.00000709  00000-0 -28724-4 0  9991","PERIOD":"95.593","GP_ID":"184760513","REF_FRAME":"TEME","MEAN_ANOMALY":"273.3808","PERIAPSIS":"546.834","EPHEMERIS_TYPE":"0","MEAN_ELEMENT_THEORY":"SGP4","MEAN_MOTION_DOT":"-0.00000709","FILE":"3116289","INCLINATION":"53.0556","NORAD_CAT_ID":"48579","MEAN_MOTION":"15.06393980","TIME_SYSTEM":"UTC","EPOCH":"2021-09-15T11:14:05.550720"},{"OBJECT_TYPE":"PAYLOAD","MEAN_MOTION_DDOT":"0.0000000000000","DECAY_DATE":null,"OBJECT_ID":"2021-041AD","TLE_LINE2":"2 48580  53.0526 255.4588 0002183  27.1246 123.8986 15.42137800  3653","SITE":"AFETR","CENTER_NAME":"EARTH","SEMIMAJOR_AXIS":"6817.938","REV_AT_EPOCH":"365","LAUNCH_DATE":"2021-05-15","RA_OF_ASC_NODE":"255.4588","ECCENTRICITY":"0.00021830","OBJECT_NAME":"STARLINK-2234","CLASSIFICATION_TYPE":"U","APOAPSIS":"441.291","RCS_SIZE":"LARGE","ELEMENT_SET_NO":"999","BSTAR":"0.00115020000000","ARG_OF_PERICENTER":"27.1246","COUNTRY_CODE":"US","TLE_LINE1":"1 48580U 21041AD  21258.91667824  .00049935  00000-0  11502-2 0  9995","PERIOD":"93.377","MEAN_ANOMALY":"123.8986","GP_ID":"184789324","REF_FRAME":"TEME","EPHEMERIS_TYPE":"0","PERIAPSIS":"438.315","MEAN_MOTION_DOT":"0.00049935","MEAN_ELEMENT_THEORY":"SGP4","FILE":"3116597","MEAN_MOTION":"15.42137800","NORAD_CAT_ID":"48580","TIME_SYSTEM":"UTC","INCLINATION":"53.0526","EPOCH":"2021-09-15T22:00:00.999936"},{"BSTAR":"-0.00006879700000","ELEMENT_SET_NO":"999","ARG_OF_PERICENTER":"35.0234","TLE_LINE1":"1 48581U 21041AE  21258.91667824 -.00003405  00000-0 -68797-4 0  9990","COUNTRY_CODE":"US","PERIOD":"93.375","APOAPSIS":"441.000","RCS_SIZE":"LARGE","FILE":"3116597","INCLINATION":"53.0526","TIME_SYSTEM":"UTC","NORAD_CAT_ID":"48581","MEAN_MOTION":"15.42165321","EPOCH":"2021-09-15T22:00:00.999936","GP_ID":"184789821","REF_FRAME":"TEME","MEAN_ANOMALY":"112.2181","PERIAPSIS":"438.444","EPHEMERIS_TYPE":"0","MEAN_ELEMENT_THEORY":"SGP4","MEAN_MOTION_DOT":"-0.00003405","MEAN_MOTION_DDOT":"0.0000000000000","OBJECT_ID":"2021-041AE","DECAY_DATE":null,"OBJECT_TYPE":"PAYLOAD","LAUNCH_DATE":"2021-05-15","RA_OF_ASC_NODE":"257.5807","ECCENTRICITY":"0.00018750","CLASSIFICATION_TYPE":"U","OBJECT_NAME":"STARLINK-2235","TLE_LINE2":"2 48581  53.0526 257.5807 0001875  35.0234 112.2181 15.42165321  3651","CENTER_NAME":"EARTH","SITE":"AFETR","SEMIMAJOR_AXIS":"6817.857","REV_AT_EPOCH":"365"},{"CENTER_NAME":"EARTH","SITE":"AFETR","TLE_LINE2":"2 48582  53.0532 256.1456 0002134  32.6437 119.8838 15.42136078  3650","SEMIMAJOR_AXIS":"6817.943","REV_AT_EPOCH":"365","ECCENTRICITY":"0.00021340","LAUNCH_DATE":"2021-05-15","RA_OF_ASC_NODE":"256.1456","OBJECT_NAME":"STARLINK-2236","CLASSIFICATION_TYPE":"U","OBJECT_TYPE":"PAYLOAD","DECAY_DATE":null,"OBJECT_ID":"2021-041AF","MEAN_MOTION_DDOT":"0.0000000000000","PERIAPSIS":"438.353","EPHEMERIS_TYPE":"0","GP_ID":"184789729","MEAN_ANOMALY":"119.8838","REF_FRAME":"TEME","MEAN_ELEMENT_THEORY":"SGP4","MEAN_MOTION_DOT":"0.00049540","INCLINATION":"53.0532","MEAN_MOTION":"15.42136078","NORAD_CAT_ID":"48582","TIME_SYSTEM":"UTC","FILE":"3116597","EPOCH":"2021-09-15T22:00:00.999936","APOAPSIS":"441.263","RCS_SIZE":"LARGE","ARG_OF_PERICENTER":"32.6437","BSTAR":"0.00114130000000","ELEMENT_SET_NO":"999","COUNTRY_CODE":"US","TLE_LINE1":"1 48582U 21041AF  21258.91667824  .00049540  00000-0  11413-2 0  9990","PERIOD":"93.377"},{"INCLINATION":"53.0561","NORAD_CAT_ID":"48583","MEAN_MOTION":"15.06399024","TIME_SYSTEM":"UTC","FILE":"3116597","EPOCH":"2021-09-15T18:43:54.587424","PERIAPSIS":"546.825","EPHEMERIS_TYPE":"0","REF_FRAME":"TEME","GP_ID":"184789232","MEAN_ANOMALY":"285.2815","MEAN_ELEMENT_THEORY":"SGP4","MEAN_MOTION_DOT":"0.00000854","ARG_OF_PERICENTER":"74.8237","BSTAR":"0.00007617100000","ELEMENT_SET_NO":"999","TLE_LINE1":"1 48583U 21041AG  21258.78049291  .00000854  00000-0  76171-4 0  9997","PERIOD":"95.592","COUNTRY_CODE":"US","APOAPSIS":"547.608","RCS_SIZE":"LARGE","ECCENTRICITY":"0.00005650","LAUNCH_DATE":"2021-05-15","RA_OF_ASC_NODE":"285.4983","OBJECT_NAME":"STARLINK-2237","CLASSIFICATION_TYPE":"U","CENTER_NAME":"EARTH","SITE":"AFETR","TLE_LINE2":"2 48583  53.0561 285.4983 0000565  74.8237 285.2815 15.06399024 18498","SEMIMAJOR_AXIS":"6925.352","REV_AT_EPOCH":"1849","OBJECT_ID":"2021-041AG","DECAY_DATE":null,"MEAN_MOTION_DDOT":"0.0000000000000","OBJECT_TYPE":"PAYLOAD"},{"INCLINATION":"53.0530","MEAN_MOTION":"15.06379725","NORAD_CAT_ID":"48584","TIME_SYSTEM":"UTC","FILE":"3116597","EPOCH":"2021-09-15T22:00:00.999936","PERIAPSIS":"546.935","EPHEMERIS_TYPE":"0","REF_FRAME":"TEME","GP_ID":"184789639","MEAN_ANOMALY":"86.9837","MEAN_ELEMENT_THEORY":"SGP4","MEAN_MOTION_DOT":"0.00034998","ARG_OF_PERICENTER":"72.0106","BSTAR":"0.00235810000000","ELEMENT_SET_NO":"999","TLE_LINE1":"1 48584U 21041AH  21258.91667824  .00034998  00000-0  23581-2 0  9992","PERIOD":"95.593","COUNTRY_CODE":"US","APOAPSIS":"547.616","RCS_SIZE":"LARGE","ECCENTRICITY":"0.00004920","LAUNCH_DATE":"2021-05-15","RA_OF_ASC_NODE":"284.8749","CLASSIFICATION_TYPE":"U","OBJECT_NAME":"STARLINK-2238","CENTER_NAME":"EARTH","SITE":"AFETR","TLE_LINE2":"2 48584  53.0530 284.8749 0000492  72.0106  86.9837 15.06379725  3593","REV_AT_EPOCH":"359","SEMIMAJOR_AXIS":"6925.411","OBJECT_ID":"2021-041AH","DECAY_DATE":null,"MEAN_MOTION_DDOT":"0.0000000000000","OBJECT_TYPE":"PAYLOAD"}];
